O3B FM10                
1 40348U 14083A   26062.41719141 -.00000028  00000+0  00000+0 0  9998
2 40348   0.0434 347.1670 0002687 353.5688  19.2470  5.00115204204604
O3B FM11                
1 40349U 14083B   26062.62980529 -.00000028  00000+0  00000+0 0  9992
2 40349   0.0566   0.5267 0003136 330.8812  28.5680  5.00115591204638
O3B FM12                
1 40350U 14083C   26062.45701118 -.00000028  00000+0  00000+0 0  9990
2 40350   0.0560 359.7796 0002643 337.6957  22.5061  5.00115945204637
O3B FM9                 
1 40351U 14083D   26062.48384024 -.00000028  00000+0  00000+0 0  9997
2 40351   0.0577   0.8456 0002736 340.1958  18.9413  5.00115885204785
ASTRA 2G                
1 40364U 14089A   26062.80599522  .00000000  00000+0  00000+0 0  9993
2 40364   0.0224   7.0985 0004368  20.7958  92.0204  1.00270425 40910
SES-9                   
1 41380U 16013A   26062.74211336 -.00000359  00000+0  00000+0 0  9996
2 41380   0.0417 305.1775 0001489  88.1962 143.5682  1.00271604 36384
SES-10                  
1 42432U 17017A   26062.78718846 -.00000286  00000+0  00000+0 0  9991
2 42432   0.0201  73.7877 0002704 274.5432  29.6851  1.00269540 32697
SES-15                  
1 42709U 17026A   26062.70355468  .00000046  00000+0  00000+0 0  9990
2 42709   0.0468 313.0615 0000684  28.7701 303.7327  1.00270029  6376
SES-11 (ECHOSTAR 105)   
1 42967U 17063A   26062.63699433 -.00000103  00000+0  00000+0 0  9997
2 42967   0.0348  70.5571 0002918 267.7089 307.4942  1.00272097 30661
SES-14                  
1 43175U 18012B   26062.79100182 -.00000292  00000+0  00000+0 0  9998
2 43175   0.0165  76.2927 0000971 264.2264  58.2811  1.00271772  5962
O3B FM15                
1 43231U 18024A   26062.75049309 -.00000028  00000+0  00000+0 0  9990
2 43231   0.0484   0.7554 0002703 337.4725  21.7538  5.00115669145756
O3B FM16                
1 43232U 18024B   26059.80451050 -.00000028  00000+0  00000+0 0  9993
2 43232   0.0446   2.3185 0002785 333.1821  24.4786  5.00115846145520
O3B FM14                
1 43233U 18024C   26062.64373098 -.00000028  00000+0  00000+0 0  9995
2 43233   0.0433   1.4387 0002847 341.7218  16.8231  5.00115636145678
O3B FM13                
1 43234U 18024D   26062.10991137 -.00000028  00000+0  00000+0 0  9997
2 43234   0.0485 331.6373 0004295 331.6147  56.6997  5.00115687145742
SES-12                  
1 43488U 18049A   26062.50266064  .00000000  00000+0  00000+0 0  9992
2 43488   0.0197 119.6372 0002235 184.1593 133.4412  1.00267936 28358
O3B FM20                
1 44112U 19020A   26061.87018883 -.00000029  00000+0  00000+0 0  9992
2 44112   0.0516 359.6601 0002817 330.2863  30.0302  5.00115471126257
O3B FM19                
1 44113U 19020B   26058.89895873 -.00000027  00000+0  00000+0 0  9991
2 44113   0.0602 347.5601 0004795 353.9797  18.4356  5.00116325125971
