[{"OBJECT_NAME":"O3B FM10","OBJECT_ID":"2014-083A","EPOCH":"2026-03-03T10:00:45.337824","MEAN_MOTION":5.00115204,"ECCENTRICITY":0.0002687,"INCLINATION":0.0434,"RA_OF_ASC_NODE":347.167,"ARG_OF_PERICENTER":353.5688,"MEAN_ANOMALY":19.247,"EPHEMERIS_TYPE":0,"CLASSIFICATION_TYPE":"U","NORAD_CAT_ID":40348,"ELEMENT_SET_NO":999,"REV_AT_EPOCH":20460,"BSTAR":0,"MEAN_MOTION_DOT":-2.8e-7,"MEAN_MOTION_DDOT":0},{"OBJECT_NAME":"O3B FM11","OBJECT_ID":"2014-083B","EPOCH":"2026-03-03T15:06:55.177056","MEAN_MOTION":5.00115591,"ECCENTRICITY":0.0003136,"INCLINATION":0.0566,"RA_OF_ASC_NODE":0.5267,"ARG_OF_PERICENTER":330.8812,"MEAN_ANOMALY":28.568,"EPHEMERIS_TYPE":0,"CLASSIFICATION_TYPE":"U","NORAD_CAT_ID":40349,"ELEMENT_SET_NO":999,"REV_AT_EPOCH":20463,"BSTAR":0,"MEAN_MOTION_DOT":-2.8e-7,"MEAN_MOTION_DDOT":0},{"OBJECT_NAME":"O3B FM12","OBJECT_ID":"2014-083C","EPOCH":"2026-03-03T10:58:05.765952","MEAN_MOTION":5.00115945,"ECCENTRICITY":0.0002643,"INCLINATION":0.056,"RA_OF_ASC_NODE":359.7796,"ARG_OF_PERICENTER":337.6957,"MEAN_ANOMALY":22.5061,"EPHEMERIS_TYPE":0,"CLASSIFICATION_TYPE":"U","NORAD_CAT_ID":40350,"ELEMENT_SET_NO":999,"REV_AT_EPOCH":20463,"BSTAR":0,"MEAN_MOTION_DOT":-2.8e-7,"MEAN_MOTION_DDOT":0},{"OBJECT_NAME":"O3B FM9","OBJECT_ID":"2014-083D","EPOCH":"2026-03-03T11:36:43.796736","MEAN_MOTION":5.00115885,"ECCENTRICITY":0.0002736,"INCLINATION":0.0577,"RA_OF_ASC_NODE":0.8456,"ARG_OF_PERICENTER":340.1958,"MEAN_ANOMALY":18.9413,"EPHEMERIS_TYPE":0,"CLASSIFICATION_TYPE":"U","NORAD_CAT_ID":40351,"ELEMENT_SET_NO":999,"REV_AT_EPOCH":20478,"BSTAR":0,"MEAN_MOTION_DOT":-2.8e-7,"MEAN_MOTION_DDOT":0},{"OBJECT_NAME":"ASTRA 2G","OBJECT_ID":"2014-089A","EPOCH":"2026-03-03T19:20:37.987008","MEAN_MOTION":1.00270425,"ECCENTRICITY":0.0004368,"INCLINATION":0.0224,"RA_OF_ASC_NODE":7.0985,"ARG_OF_PERICENTER":20.7958,"MEAN_ANOMALY":92.0204,"EPHEMERIS_TYPE":0,"CLASSIFICATION_TYPE":"U","NORAD_CAT_ID":40364,"ELEMENT_SET_NO":999,"REV_AT_EPOCH":4091,"BSTAR":0,"MEAN_MOTION_DOT":0,"MEAN_MOTION_DDOT":0},{"OBJECT_NAME":"SES-9","OBJECT_ID":"2016-013A","EPOCH":"2026-03-03T17:48:38.594304","MEAN_MOTION":1.00271604,"ECCENTRICITY":0.0001489,"INCLINATION":0.0417,"RA_OF_ASC_NODE":305.1775,"ARG_OF_PERICENTER":88.1962,"MEAN_ANOMALY":143.5682,"EPHEMERIS_TYPE":0,"CLASSIFICATION_TYPE":"U","NORAD_CAT_ID":41380,"ELEMENT_SET_NO":999,"REV_AT_EPOCH":3638,"BSTAR":0,"MEAN_MOTION_DOT":-3.59e-6,"MEAN_MOTION_DDOT":0},{"OBJECT_NAME":"SES-10","OBJECT_ID":"2017-017A","EPOCH":"2026-03-03T18:53:33.082944","MEAN_MOTION":1.0026954,"ECCENTRICITY":0.0002704,"INCLINATION":0.0201,"RA_OF_ASC_NODE":73.7877,"ARG_OF_PERICENTER":274.5432,"MEAN_ANOMALY":29.6851,"EPHEMERIS_TYPE":0,"CLASSIFICATION_TYPE":"U","NORAD_CAT_ID":42432,"ELEMENT_SET_NO":999,"REV_AT_EPOCH":3269,"BSTAR":0,"MEAN_MOTION_DOT":-2.86e-6,"MEAN_MOTION_DDOT":0},{"OBJECT_NAME":"SES-15","OBJECT_ID":"2017-026A","EPOCH":"2026-03-03T16:53:07.124352","MEAN_MOTION":1.00270029,"ECCENTRICITY":6.84e-5,"INCLINATION":0.0468,"RA_OF_ASC_NODE":313.0615,"ARG_OF_PERICENTER":28.7701,"MEAN_ANOMALY":303.7327,"EPHEMERIS_TYPE":0,"CLASSIFICATION_TYPE":"U","NORAD_CAT_ID":42709,"ELEMENT_SET_NO":999,"REV_AT_EPOCH":637,"BSTAR":0,"MEAN_MOTION_DOT":4.6e-7,"MEAN_MOTION_DDOT":0},{"OBJECT_NAME":"SES-11 (ECHOSTAR 105)","OBJECT_ID":"2017-063A","EPOCH":"2026-03-03T15:17:16.310112","MEAN_MOTION":1.00272097,"ECCENTRICITY":0.0002918,"INCLINATION":0.0348,"RA_OF_ASC_NODE":70.5571,"ARG_OF_PERICENTER":267.7089,"MEAN_ANOMALY":307.4942,"EPHEMERIS_TYPE":0,"CLASSIFICATION_TYPE":"U","NORAD_CAT_ID":42967,"ELEMENT_SET_NO":999,"REV_AT_EPOCH":3066,"BSTAR":0,"MEAN_MOTION_DOT":-1.03e-6,"MEAN_MOTION_DDOT":0},{"OBJECT_NAME":"SES-14","OBJECT_ID":"2018-012B","EPOCH":"2026-03-03T18:59:02.557248","MEAN_MOTION":1.00271772,"ECCENTRICITY":9.71e-5,"INCLINATION":0.0165,"RA_OF_ASC_NODE":76.2927,"ARG_OF_PERICENTER":264.2264,"MEAN_ANOMALY":58.2811,"EPHEMERIS_TYPE":0,"CLASSIFICATION_TYPE":"U","NORAD_CAT_ID":43175,"ELEMENT_SET_NO":999,"REV_AT_EPOCH":596,"BSTAR":0,"MEAN_MOTION_DOT":-2.92e-6,"MEAN_MOTION_DDOT":0},{"OBJECT_NAME":"O3B FM15","OBJECT_ID":"2018-024A","EPOCH":"2026-03-03T18:00:42.602976","MEAN_MOTION":5.00115669,"ECCENTRICITY":0.0002703,"INCLINATION":0.0484,"RA_OF_ASC_NODE":0.7554,"ARG_OF_PERICENTER":337.4725,"MEAN_ANOMALY":21.7538,"EPHEMERIS_TYPE":0,"CLASSIFICATION_TYPE":"U","NORAD_CAT_ID":43231,"ELEMENT_SET_NO":999,"REV_AT_EPOCH":14575,"BSTAR":0,"MEAN_MOTION_DOT":-2.8e-7,"MEAN_MOTION_DDOT":0},{"OBJECT_NAME":"O3B FM16","OBJECT_ID":"2018-024B","EPOCH":"2026-02-28T19:18:29.707200","MEAN_MOTION":5.00115846,"ECCENTRICITY":0.0002785,"INCLINATION":0.0446,"RA_OF_ASC_NODE":2.3185,"ARG_OF_PERICENTER":333.1821,"MEAN_ANOMALY":24.4786,"EPHEMERIS_TYPE":0,"CLASSIFICATION_TYPE":"U","NORAD_CAT_ID":43232,"ELEMENT_SET_NO":999,"REV_AT_EPOCH":14552,"BSTAR":0,"MEAN_MOTION_DOT":-2.8e-7,"MEAN_MOTION_DDOT":0},{"OBJECT_NAME":"O3B FM14","OBJECT_ID":"2018-024C","EPOCH":"2026-03-03T15:26:58.356672","MEAN_MOTION":5.00115636,"ECCENTRICITY":0.0002847,"INCLINATION":0.0433,"RA_OF_ASC_NODE":1.4387,"ARG_OF_PERICENTER":341.7218,"MEAN_ANOMALY":16.8231,"EPHEMERIS_TYPE":0,"CLASSIFICATION_TYPE":"U","NORAD_CAT_ID":43233,"ELEMENT_SET_NO":999,"REV_AT_EPOCH":14567,"BSTAR":0,"MEAN_MOTION_DOT":-2.8e-7,"MEAN_MOTION_DDOT":0},{"OBJECT_NAME":"O3B FM13","OBJECT_ID":"2018-024D","EPOCH":"2026-03-03T02:38:16.342368","MEAN_MOTION":5.00115687,"ECCENTRICITY":0.00042952,"INCLINATION":0.0485,"RA_OF_ASC_NODE":331.6373,"ARG_OF_PERICENTER":331.6147,"MEAN_ANOMALY":56.6997,"EPHEMERIS_TYPE":0,"CLASSIFICATION_TYPE":"U","NORAD_CAT_ID":43234,"ELEMENT_SET_NO":999,"REV_AT_EPOCH":14574,"BSTAR":0,"MEAN_MOTION_DOT":-2.8e-7,"MEAN_MOTION_DDOT":0},{"OBJECT_NAME":"SES-12","OBJECT_ID":"2018-049A","EPOCH":"2026-03-03T12:03:49.879296","MEAN_MOTION":1.00267936,"ECCENTRICITY":0.0002235,"INCLINATION":0.0197,"RA_OF_ASC_NODE":119.6372,"ARG_OF_PERICENTER":184.1593,"MEAN_ANOMALY":133.4412,"EPHEMERIS_TYPE":0,"CLASSIFICATION_TYPE":"U","NORAD_CAT_ID":43488,"ELEMENT_SET_NO":999,"REV_AT_EPOCH":2835,"BSTAR":0,"MEAN_MOTION_DOT":0,"MEAN_MOTION_DDOT":0},{"OBJECT_NAME":"O3B FM20","OBJECT_ID":"2019-020A","EPOCH":"2026-03-02T20:53:04.314912","MEAN_MOTION":5.00115471,"ECCENTRICITY":0.0002817,"INCLINATION":0.0516,"RA_OF_ASC_NODE":359.6601,"ARG_OF_PERICENTER":330.2863,"MEAN_ANOMALY":30.0302,"EPHEMERIS_TYPE":0,"CLASSIFICATION_TYPE":"U","NORAD_CAT_ID":44112,"ELEMENT_SET_NO":999,"REV_AT_EPOCH":12625,"BSTAR":0,"MEAN_MOTION_DOT":-2.9e-7,"MEAN_MOTION_DDOT":0},{"OBJECT_NAME":"O3B FM19","OBJECT_ID":"2019-020B","EPOCH":"2026-02-27T21:34:30.034272","MEAN_MOTION":5.00116325,"ECCENTRICITY":0.0004795,"INCLINATION":0.0602,"RA_OF_ASC_NODE":347.5601,"ARG_OF_PERICENTER":353.9797,"MEAN_ANOMALY":18.4356,"EPHEMERIS_TYPE":0,"CLASSIFICATION_TYPE":"U","NORAD_CAT_ID":44113,"ELEMENT_SET_NO":999,"REV_AT_EPOCH":12597,"BSTAR":0,"MEAN_MOTION_DOT":-2.7e-7,"MEAN_MOTION_DDOT":0}]
